GLOBALSTAR M035 [-]     
1 25851U 99037A   23241.03700819  .00000001  00000+0  24310-2 0  9991
2 25851  51.9948  82.6769 0014093 359.0266 162.7069 11.04526088 23545
GLOBALSTAR M032 [-]     
1 25852U 99037B   23240.47743737 -.00000141  00000+0 -23910-2 0  9997
2 25852  51.9970 314.5779 0008302 135.9457 224.2006 11.19046295 61043
GLOBALSTAR M051 [-]     
1 25853U 99037C   23240.60579826 -.00000076  00000+0 -11228-3 0  9996
2 25853  51.9772 189.6171 0001503 104.9009 255.1968 11.42190212 57136
GLOBALSTAR M030 [-]     
1 25854U 99037D   23241.15525147 -.00000065  00000+0  20554-3 0  9994
2 25854  51.9896  36.2303 0003596 311.0750  48.9756 11.55089649 74100
GLOBALSTAR M048 [-]     
1 25872U 99041A   23240.91779488 -.00000055  00000+0  41725-3 0  9993
2 25872  51.9361  98.4392 0013631 121.5683 251.5873 11.33839308 50315
GLOBALSTAR M026 [-]     
1 25873U 99041B   23240.62853942 -.00000120  00000+0 -20734-2 0  9990
2 25873  51.9974 208.4947 0001652 263.9602 267.4491 11.06822014 75569
GLOBALSTAR M043 [-]     
1 25874U 99041C   23240.82314990 -.00000090  00000+0 -66144-3 0  9990
2 25874  51.9383 180.0717 0012996 270.8351 114.1171 11.25673599 48730
GLOBALSTAR M028 [-]     
1 25875U 99041D   23241.12603205 -.00000104  00000+0 -20852-4 0  9998
2 25875  51.9649 355.2107 0064137  82.8034 278.0113 12.50539271107872
